SL-3 R/B                
1 13403U 82079B   26008.53886201  .00006436  00000+0  26247-3 0  9998
2 13403  81.1460 264.0658 0025883  12.3901 347.7963 15.23970031368531
SL-14 R/B               
1 13553U 82092B   26009.01883457  .00000524  00000+0  56148-4 0  9999
2 13553  82.5668 197.1983 0021360 136.2065 339.3435 14.86588103320062
SL-3 R/B                
1 13819U 83010B   26008.92866966  .00013472  00000+0  29015-3 0  9998
2 13819  81.1034  75.4106 0016186 253.0761 106.8708 15.44332698348718
SL-3 R/B                
1 14208U 83075B   26009.01057370  .00010741  00000+0  29797-3 0  9997
2 14208  97.6119  11.4225 0024542  83.8374 276.5664 15.36807340320980
COSMOS 1536             
1 14699U 84013A   26008.94656888  .00006103  00000+0  25787-3 0  9996
2 14699  82.5459 167.1751 0015415 129.7301 230.5296 15.22937857263525
SL-14 R/B               
1 14820U 84027B   26008.89616899  .00000522  00000+0  56881-4 0  9998
2 14820  82.5432 301.0913 0018223 166.5311 193.6396 14.85909602238753
SL-8 R/B                
1 15483U 85006B   26008.40983752  .00000353  00000+0  12597-3 0  9991
2 15483  74.0459  12.0627 0019682 299.5507 165.7433 14.37742025145366
SL-12 R/B(2)            
1 15772U 85042D   26008.61761427  .00000135  00000+0  82100-4 0  9994
2 15772  71.1065 214.6385 0036736 221.8905 194.7393 14.21960770105857
SL-14 R/B               
1 15945U 85069B   26008.89913183  .00000463  00000+0  49635-4 0  9993
2 15945  82.5265  81.1699 0019611  34.5443 325.7044 14.86359940163957
SL-16 R/B               
1 16182U 85097B   26008.97049558  .00000253  00000+0  15059-3 0  9992
2 16182  71.0030 266.2768 0008307 331.8592 114.0782 14.16590701 78773
SL-14 R/B               
1 16496U 86006B   26008.89143057  .00000688  00000+0  70148-4 0  9994
2 16496  82.5286 316.0050 0078189 110.4930 250.4702 14.86713771140320
COSMOS 1743             
1 16719U 86034A   26008.39459674  .00037178  00000+0  57245-3 0  9999
2 16719  82.5359 136.8716 0005204 149.8031 210.3524 15.54013608170870
