CCSDS_OMM_VERS = 2.0
CREATION_DATE  = 
ORIGINATOR     = 

OBJECT_NAME    = SL-3 R/B
OBJECT_ID      = 1982-079B
CENTER_NAME    = EARTH
REF_FRAME      = TEME
TIME_SYSTEM    = UTC
MEAN_ELEMENT_THEORY = SGP/SGP4

EPOCH          = 2026-01-08T12:55:57.677664
MEAN_MOTION    = 15.23970031
ECCENTRICITY   = .00258832
INCLINATION    = 81.1460
RA_OF_ASC_NODE = 264.0658
ARG_OF_PERICENTER = 12.3901
MEAN_ANOMALY   = 347.7963

EPHEMERIS_TYPE = 0
CLASSIFICATION_TYPE = U
NORAD_CAT_ID   = 13403
ELEMENT_SET_NO = 999
REV_AT_EPOCH   = 36853
BSTAR          = .26247275E-3
MEAN_MOTION_DOT = .6436E-4
MEAN_MOTION_DDOT = 0

CCSDS_OMM_VERS = 2.0
CREATION_DATE  = 
ORIGINATOR     = 

OBJECT_NAME    = SL-14 R/B
OBJECT_ID      = 1982-092B
CENTER_NAME    = EARTH
REF_FRAME      = TEME
TIME_SYSTEM    = UTC
MEAN_ELEMENT_THEORY = SGP/SGP4

EPOCH          = 2026-01-09T00:27:07.306848
MEAN_MOTION    = 14.86588103
ECCENTRICITY   = .002136
INCLINATION    = 82.5668
RA_OF_ASC_NODE = 197.1983
ARG_OF_PERICENTER = 136.2065
MEAN_ANOMALY   = 339.3435

EPHEMERIS_TYPE = 0
CLASSIFICATION_TYPE = U
NORAD_CAT_ID   = 13553
ELEMENT_SET_NO = 999
REV_AT_EPOCH   = 32006
BSTAR          = .56148E-4
MEAN_MOTION_DOT = .524E-5
MEAN_MOTION_DDOT = 0

CCSDS_OMM_VERS = 2.0
CREATION_DATE  = 
ORIGINATOR     = 

OBJECT_NAME    = SL-3 R/B
OBJECT_ID      = 1983-010B
CENTER_NAME    = EARTH
REF_FRAME      = TEME
TIME_SYSTEM    = UTC
MEAN_ELEMENT_THEORY = SGP/SGP4

EPOCH          = 2026-01-08T22:17:17.058624
MEAN_MOTION    = 15.44332698
ECCENTRICITY   = .0016186
INCLINATION    = 81.1034
RA_OF_ASC_NODE = 75.4106
ARG_OF_PERICENTER = 253.0761
MEAN_ANOMALY   = 106.8708

EPHEMERIS_TYPE = 0
CLASSIFICATION_TYPE = U
NORAD_CAT_ID   = 13819
ELEMENT_SET_NO = 999
REV_AT_EPOCH   = 34871
BSTAR          = .29015E-3
MEAN_MOTION_DOT = .13472E-3
MEAN_MOTION_DDOT = 0

CCSDS_OMM_VERS = 2.0
CREATION_DATE  = 
ORIGINATOR     = 

OBJECT_NAME    = SL-3 R/B
OBJECT_ID      = 1983-075B
CENTER_NAME    = EARTH
REF_FRAME      = TEME
TIME_SYSTEM    = UTC
MEAN_ELEMENT_THEORY = SGP/SGP4

EPOCH          = 2026-01-09T00:15:13.567680
MEAN_MOTION    = 15.36807340
ECCENTRICITY   = .0024542
INCLINATION    = 97.6119
RA_OF_ASC_NODE = 11.4225
ARG_OF_PERICENTER = 83.8374
MEAN_ANOMALY   = 276.5664

EPHEMERIS_TYPE = 0
CLASSIFICATION_TYPE = U
NORAD_CAT_ID   = 14208
ELEMENT_SET_NO = 999
REV_AT_EPOCH   = 32098
BSTAR          = .29797E-3
MEAN_MOTION_DOT = .10741E-3
MEAN_MOTION_DDOT = 0

CCSDS_OMM_VERS = 2.0
CREATION_DATE  = 
ORIGINATOR     = 

OBJECT_NAME    = COSMOS 1536
OBJECT_ID      = 1984-013A
CENTER_NAME    = EARTH
REF_FRAME      = TEME
TIME_SYSTEM    = UTC
MEAN_ELEMENT_THEORY = SGP/SGP4

EPOCH          = 2026-01-08T22:43:03.551232
MEAN_MOTION    = 15.22937857
ECCENTRICITY   = .0015415
INCLINATION    = 82.5459
RA_OF_ASC_NODE = 167.1751
ARG_OF_PERICENTER = 129.7301
MEAN_ANOMALY   = 230.5296

EPHEMERIS_TYPE = 0
CLASSIFICATION_TYPE = U
NORAD_CAT_ID   = 14699
ELEMENT_SET_NO = 999
REV_AT_EPOCH   = 26352
BSTAR          = .25787E-3
MEAN_MOTION_DOT = .6103E-4
MEAN_MOTION_DDOT = 0

CCSDS_OMM_VERS = 2.0
CREATION_DATE  = 
ORIGINATOR     = 

OBJECT_NAME    = SL-14 R/B
OBJECT_ID      = 1984-027B
CENTER_NAME    = EARTH
REF_FRAME      = TEME
TIME_SYSTEM    = UTC
MEAN_ELEMENT_THEORY = SGP/SGP4

EPOCH          = 2026-01-08T21:30:29.000736
MEAN_MOTION    = 14.85909602
ECCENTRICITY   = .0018223
INCLINATION    = 82.5432
RA_OF_ASC_NODE = 301.0913
ARG_OF_PERICENTER = 166.5311
MEAN_ANOMALY   = 193.6396

EPHEMERIS_TYPE = 0
CLASSIFICATION_TYPE = U
NORAD_CAT_ID   = 14820
ELEMENT_SET_NO = 999
REV_AT_EPOCH   = 23875
BSTAR          = .56881E-4
MEAN_MOTION_DOT = .522E-5
MEAN_MOTION_DDOT = 0

CCSDS_OMM_VERS = 2.0
CREATION_DATE  = 
ORIGINATOR     = 

OBJECT_NAME    = SL-8 R/B
OBJECT_ID      = 1985-006B
CENTER_NAME    = EARTH
REF_FRAME      = TEME
TIME_SYSTEM    = UTC
MEAN_ELEMENT_THEORY = SGP/SGP4

EPOCH          = 2026-01-08T09:50:09.961728
MEAN_MOTION    = 14.37742025
ECCENTRICITY   = .0019682
INCLINATION    = 74.0459
RA_OF_ASC_NODE = 12.0627
ARG_OF_PERICENTER = 299.5507
MEAN_ANOMALY   = 165.7433

EPHEMERIS_TYPE = 0
CLASSIFICATION_TYPE = U
NORAD_CAT_ID   = 15483
ELEMENT_SET_NO = 999
REV_AT_EPOCH   = 14536
BSTAR          = .12597409E-3
MEAN_MOTION_DOT = .353E-5
MEAN_MOTION_DDOT = 0

CCSDS_OMM_VERS = 2.0
CREATION_DATE  = 
ORIGINATOR     = 

OBJECT_NAME    = SL-12 R/B(2)
OBJECT_ID      = 1985-042D
CENTER_NAME    = EARTH
REF_FRAME      = TEME
TIME_SYSTEM    = UTC
MEAN_ELEMENT_THEORY = SGP/SGP4

EPOCH          = 2026-01-08T14:49:21.872928
MEAN_MOTION    = 14.21960770
ECCENTRICITY   = .00367365
INCLINATION    = 71.1065
RA_OF_ASC_NODE = 214.6385
ARG_OF_PERICENTER = 221.8905
MEAN_ANOMALY   = 194.7393

EPHEMERIS_TYPE = 0
CLASSIFICATION_TYPE = U
NORAD_CAT_ID   = 15772
ELEMENT_SET_NO = 999
REV_AT_EPOCH   = 10585
BSTAR          = .82100135E-4
MEAN_MOTION_DOT = .135E-5
MEAN_MOTION_DDOT = 0

CCSDS_OMM_VERS = 2.0
CREATION_DATE  = 
ORIGINATOR     = 

OBJECT_NAME    = SL-14 R/B
OBJECT_ID      = 1985-069B
CENTER_NAME    = EARTH
REF_FRAME      = TEME
TIME_SYSTEM    = UTC
MEAN_ELEMENT_THEORY = SGP/SGP4

EPOCH          = 2026-01-08T21:34:44.990112
MEAN_MOTION    = 14.86359940
ECCENTRICITY   = .0019611
INCLINATION    = 82.5265
RA_OF_ASC_NODE = 81.1699
ARG_OF_PERICENTER = 34.5443
MEAN_ANOMALY   = 325.7044

EPHEMERIS_TYPE = 0
CLASSIFICATION_TYPE = U
NORAD_CAT_ID   = 15945
ELEMENT_SET_NO = 999
REV_AT_EPOCH   = 16395
BSTAR          = .49635E-4
MEAN_MOTION_DOT = .463E-5
MEAN_MOTION_DDOT = 0

CCSDS_OMM_VERS = 2.0
CREATION_DATE  = 
ORIGINATOR     = 

OBJECT_NAME    = SL-16 R/B
OBJECT_ID      = 1985-097B
CENTER_NAME    = EARTH
REF_FRAME      = TEME
TIME_SYSTEM    = UTC
MEAN_ELEMENT_THEORY = SGP/SGP4

EPOCH          = 2026-01-08T23:17:30.818112
MEAN_MOTION    = 14.16590701
ECCENTRICITY   = .0008307
INCLINATION    = 71.0030
RA_OF_ASC_NODE = 266.2768
ARG_OF_PERICENTER = 331.8592
MEAN_ANOMALY   = 114.0782

EPHEMERIS_TYPE = 0
CLASSIFICATION_TYPE = U
NORAD_CAT_ID   = 16182
ELEMENT_SET_NO = 999
REV_AT_EPOCH   = 7877
BSTAR          = .15059E-3
MEAN_MOTION_DOT = .253E-5
MEAN_MOTION_DDOT = 0

CCSDS_OMM_VERS = 2.0
CREATION_DATE  = 
ORIGINATOR     = 

OBJECT_NAME    = SL-14 R/B
OBJECT_ID      = 1986-006B
CENTER_NAME    = EARTH
REF_FRAME      = TEME
TIME_SYSTEM    = UTC
MEAN_ELEMENT_THEORY = SGP/SGP4

EPOCH          = 2026-01-08T21:23:39.601248
MEAN_MOTION    = 14.86713771
ECCENTRICITY   = .0078189
INCLINATION    = 82.5286
RA_OF_ASC_NODE = 316.0050
ARG_OF_PERICENTER = 110.4930
MEAN_ANOMALY   = 250.4702

EPHEMERIS_TYPE = 0
CLASSIFICATION_TYPE = U
NORAD_CAT_ID   = 16496
ELEMENT_SET_NO = 999
REV_AT_EPOCH   = 14032
BSTAR          = .70148E-4
MEAN_MOTION_DOT = .688E-5
MEAN_MOTION_DDOT = 0

CCSDS_OMM_VERS = 2.0
CREATION_DATE  = 
ORIGINATOR     = 

OBJECT_NAME    = COSMOS 1743
OBJECT_ID      = 1986-034A
CENTER_NAME    = EARTH
REF_FRAME      = TEME
TIME_SYSTEM    = UTC
MEAN_ELEMENT_THEORY = SGP/SGP4

EPOCH          = 2026-01-08T09:28:13.158336
MEAN_MOTION    = 15.54013608
ECCENTRICITY   = .00052041
INCLINATION    = 82.5359
RA_OF_ASC_NODE = 136.8716
ARG_OF_PERICENTER = 149.8031
MEAN_ANOMALY   = 210.3524

EPHEMERIS_TYPE = 0
CLASSIFICATION_TYPE = U
NORAD_CAT_ID   = 16719
ELEMENT_SET_NO = 999
REV_AT_EPOCH   = 17087
BSTAR          = .57245154E-3
MEAN_MOTION_DOT = .37178E-3
MEAN_MOTION_DDOT = 0

